TRANSPORTER-10 OBJECT AG
1 59128U 24043AG  26068.92552531  .00009498  00000+0  32170-3 0  9997
2 59128  97.5471 205.7101 0009300 226.5958 133.4509 15.30759727111920
STARLINK-36478          
1 67351U 26003T   26068.46712717  .00026407  00000+0  96567-3 0  9994
2 67351  42.9982 227.9872 0001215 264.7832  95.2881 15.27580731  8792
